[{"OBJECT_NAME":"ONEWEB-0381","OBJECT_ID":"2021-090AE","EPOCH":"2025-11-01T12:13:12.802944","MEAN_MOTION":13.20771485,"ECCENTRICITY":0.00016506,"INCLINATION":87.9186,"RA_OF_ASC_NODE":319.8476,"ARG_OF_PERICENTER":85.5743,"MEAN_ANOMALY":274.5579,"EPHEMERIS_TYPE":0,"CLASSIFICATION_TYPE":"U","NORAD_CAT_ID":49307,"ELEMENT_SET_NO":999,"REV_AT_EPOCH":19977,"BSTAR":2.4543874e-5,"MEAN_MOTION_DOT":2.3e-7,"MEAN_MOTION_DDOT":0},{"OBJECT_NAME":"ONEWEB-0382","OBJECT_ID":"2021-090AF","EPOCH":"2025-11-01T11:55:01.788672","MEAN_MOTION":13.20770804,"ECCENTRICITY":0.0001562,"INCLINATION":87.9194,"RA_OF_ASC_NODE":319.8434,"ARG_OF_PERICENTER":93.0346,"MEAN_ANOMALY":267.0966,"EPHEMERIS_TYPE":0,"CLASSIFICATION_TYPE":"U","NORAD_CAT_ID":49308,"ELEMENT_SET_NO":999,"REV_AT_EPOCH":19976,"BSTAR":6.934358e-5,"MEAN_MOTION_DOT":4.1e-7,"MEAN_MOTION_DDOT":0},{"OBJECT_NAME":"ONEWEB-0383","OBJECT_ID":"2021-090AG","EPOCH":"2025-11-01T12:22:15.453696","MEAN_MOTION":13.14504105,"ECCENTRICITY":0.00017168,"INCLINATION":87.9011,"RA_OF_ASC_NODE":335.0463,"ARG_OF_PERICENTER":99.3256,"MEAN_ANOMALY":260.8068,"EPHEMERIS_TYPE":0,"CLASSIFICATION_TYPE":"U","NORAD_CAT_ID":49309,"ELEMENT_SET_NO":999,"REV_AT_EPOCH":19768,"BSTAR":-5.1609084e-5,"MEAN_MOTION_DOT":-6.0e-8,"MEAN_MOTION_DDOT":0},{"OBJECT_NAME":"ONEWEB-0384","OBJECT_ID":"2021-090AH","EPOCH":"2025-11-01T11:46:42.149568","MEAN_MOTION":13.20796017,"ECCENTRICITY":0.0001356,"INCLINATION":87.921,"RA_OF_ASC_NODE":319.8767,"ARG_OF_PERICENTER":100.2941,"MEAN_ANOMALY":259.8346,"EPHEMERIS_TYPE":0,"CLASSIFICATION_TYPE":"U","NORAD_CAT_ID":49310,"ELEMENT_SET_NO":999,"REV_AT_EPOCH":19977,"BSTAR":-3.7734973e-5,"MEAN_MOTION_DOT":-2.0e-8,"MEAN_MOTION_DDOT":0},{"OBJECT_NAME":"ONEWEB-0385","OBJECT_ID":"2021-090AJ","EPOCH":"2025-11-01T11:43:39.716832","MEAN_MOTION":13.20772399,"ECCENTRICITY":0.00016951,"INCLINATION":87.9188,"RA_OF_ASC_NODE":319.8536,"ARG_OF_PERICENTER":93.1041,"MEAN_ANOMALY":267.0287,"EPHEMERIS_TYPE":0,"CLASSIFICATION_TYPE":"U","NORAD_CAT_ID":49311,"ELEMENT_SET_NO":999,"REV_AT_EPOCH":19974,"BSTAR":5.475941e-6,"MEAN_MOTION_DOT":1.5e-7,"MEAN_MOTION_DDOT":0},{"OBJECT_NAME":"ONEWEB-0386","OBJECT_ID":"2021-090AK","EPOCH":"2025-11-01T12:08:39.640704","MEAN_MOTION":13.20771655,"ECCENTRICITY":0.0001624,"INCLINATION":87.9195,"RA_OF_ASC_NODE":319.8308,"ARG_OF_PERICENTER":95.3025,"MEAN_ANOMALY":264.8294,"EPHEMERIS_TYPE":0,"CLASSIFICATION_TYPE":"U","NORAD_CAT_ID":49312,"ELEMENT_SET_NO":999,"REV_AT_EPOCH":19976,"BSTAR":3.988717e-6,"MEAN_MOTION_DOT":1.5e-7,"MEAN_MOTION_DDOT":0},{"OBJECT_NAME":"ONEWEB-0387","OBJECT_ID":"2021-090AL","EPOCH":"2025-11-01T11:45:56.053440","MEAN_MOTION":13.2077056,"ECCENTRICITY":0.00017135,"INCLINATION":87.9186,"RA_OF_ASC_NODE":319.8828,"ARG_OF_PERICENTER":83.3414,"MEAN_ANOMALY":276.7914,"EPHEMERIS_TYPE":0,"CLASSIFICATION_TYPE":"U","NORAD_CAT_ID":49313,"ELEMENT_SET_NO":999,"REV_AT_EPOCH":19976,"BSTAR":-2.4724647e-5,"MEAN_MOTION_DOT":3.0e-8,"MEAN_MOTION_DDOT":0},{"OBJECT_NAME":"ONEWEB-0388","OBJECT_ID":"2021-090AM","EPOCH":"2025-11-01T10:14:30.930432","MEAN_MOTION":13.1972669,"ECCENTRICITY":0.00017648,"INCLINATION":87.9228,"RA_OF_ASC_NODE":350.2963,"ARG_OF_PERICENTER":98.313,"MEAN_ANOMALY":261.8203,"EPHEMERIS_TYPE":0,"CLASSIFICATION_TYPE":"U","NORAD_CAT_ID":49314,"ELEMENT_SET_NO":999,"REV_AT_EPOCH":19637,"BSTAR":0.000322797,"MEAN_MOTION_DOT":1.42e-6,"MEAN_MOTION_DDOT":0},{"OBJECT_NAME":"ONEWEB-0389","OBJECT_ID":"2021-132A","EPOCH":"2025-11-01T07:32:33.872352","MEAN_MOTION":13.17630029,"ECCENTRICITY":0.00014172,"INCLINATION":87.9139,"RA_OF_ASC_NODE":51.1832,"ARG_OF_PERICENTER":101.6037,"MEAN_ANOMALY":258.5254,"EPHEMERIS_TYPE":0,"CLASSIFICATION_TYPE":"U","NORAD_CAT_ID":50469,"ELEMENT_SET_NO":999,"REV_AT_EPOCH":18807,"BSTAR":0.0107678,"MEAN_MOTION_DOT":4.194e-5,"MEAN_MOTION_DDOT":0},{"OBJECT_NAME":"ONEWEB-0390","OBJECT_ID":"2021-132B","EPOCH":"2025-11-01T13:03:01.794528","MEAN_MOTION":13.17649776,"ECCENTRICITY":0.00019521,"INCLINATION":87.9127,"RA_OF_ASC_NODE":51.142,"ARG_OF_PERICENTER":94.0668,"MEAN_ANOMALY":266.0687,"EPHEMERIS_TYPE":0,"CLASSIFICATION_TYPE":"U","NORAD_CAT_ID":50470,"ELEMENT_SET_NO":999,"REV_AT_EPOCH":18810,"BSTAR":0.00017827217,"MEAN_MOTION_DOT":8.2e-7,"MEAN_MOTION_DDOT":0},{"OBJECT_NAME":"ONEWEB-0391","OBJECT_ID":"2021-132C","EPOCH":"2025-11-01T13:05:27.352608","MEAN_MOTION":13.17651451,"ECCENTRICITY":0.00013675,"INCLINATION":87.9119,"RA_OF_ASC_NODE":51.1515,"ARG_OF_PERICENTER":72.864,"MEAN_ANOMALY":287.2641,"EPHEMERIS_TYPE":0,"CLASSIFICATION_TYPE":"U","NORAD_CAT_ID":50471,"ELEMENT_SET_NO":999,"REV_AT_EPOCH":18810,"BSTAR":6.7663871e-5,"MEAN_MOTION_DOT":3.9e-7,"MEAN_MOTION_DDOT":0},{"OBJECT_NAME":"ONEWEB-0392","OBJECT_ID":"2021-132D","EPOCH":"2025-11-01T13:49:11.013024","MEAN_MOTION":13.17651699,"ECCENTRICITY":0.00014532,"INCLINATION":87.9127,"RA_OF_ASC_NODE":51.0947,"ARG_OF_PERICENTER":92.5132,"MEAN_ANOMALY":267.6166,"EPHEMERIS_TYPE":0,"CLASSIFICATION_TYPE":"U","NORAD_CAT_ID":50472,"ELEMENT_SET_NO":999,"REV_AT_EPOCH":18814,"BSTAR":7.8422157e-5,"MEAN_MOTION_DOT":4.3e-7,"MEAN_MOTION_DDOT":0},{"OBJECT_NAME":"ONEWEB-0393","OBJECT_ID":"2021-132E","EPOCH":"2025-11-01T13:10:29.559936","MEAN_MOTION":13.17664124,"ECCENTRICITY":0.00014011,"INCLINATION":87.9126,"RA_OF_ASC_NODE":51.1205,"ARG_OF_PERICENTER":99.6818,"MEAN_ANOMALY":260.4472,"EPHEMERIS_TYPE":0,"CLASSIFICATION_TYPE":"U","NORAD_CAT_ID":50473,"ELEMENT_SET_NO":999,"REV_AT_EPOCH":18813,"BSTAR":-0.0082492279,"MEAN_MOTION_DOT":-3.19e-5,"MEAN_MOTION_DDOT":0},{"OBJECT_NAME":"ONEWEB-0394","OBJECT_ID":"2021-132F","EPOCH":"2025-11-01T11:14:24.758304","MEAN_MOTION":13.18686856,"ECCENTRICITY":0.00016803,"INCLINATION":87.9228,"RA_OF_ASC_NODE":20.6645,"ARG_OF_PERICENTER":100.2599,"MEAN_ANOMALY":259.8722,"EPHEMERIS_TYPE":0,"CLASSIFICATION_TYPE":"U","NORAD_CAT_ID":50474,"ELEMENT_SET_NO":999,"REV_AT_EPOCH":19158,"BSTAR":0.00026994824,"MEAN_MOTION_DOT":1.19e-6,"MEAN_MOTION_DDOT":0},{"OBJECT_NAME":"ONEWEB-0395","OBJECT_ID":"2021-132G","EPOCH":"2025-11-01T13:46:14.149632","MEAN_MOTION":13.11416273,"ECCENTRICITY":0.0001665,"INCLINATION":87.8851,"RA_OF_ASC_NODE":66.4049,"ARG_OF_PERICENTER":91.6655,"MEAN_ANOMALY":268.4664,"EPHEMERIS_TYPE":0,"CLASSIFICATION_TYPE":"U","NORAD_CAT_ID":50475,"ELEMENT_SET_NO":999,"REV_AT_EPOCH":18588,"BSTAR":0.00065576685,"MEAN_MOTION_DOT":2.45e-6,"MEAN_MOTION_DDOT":0},{"OBJECT_NAME":"ONEWEB-0396","OBJECT_ID":"2021-132H","EPOCH":"2025-11-01T14:43:26.394816","MEAN_MOTION":13.18686155,"ECCENTRICITY":0.00017362,"INCLINATION":87.9235,"RA_OF_ASC_NODE":20.6486,"ARG_OF_PERICENTER":100.1056,"MEAN_ANOMALY":260.0272,"EPHEMERIS_TYPE":0,"CLASSIFICATION_TYPE":"U","NORAD_CAT_ID":50476,"ELEMENT_SET_NO":999,"REV_AT_EPOCH":19164,"BSTAR":-0.00010644184,"MEAN_MOTION_DOT":-2.9e-7,"MEAN_MOTION_DDOT":0},{"OBJECT_NAME":"ONEWEB-0397","OBJECT_ID":"2021-132J","EPOCH":"2025-11-01T05:58:29.867520","MEAN_MOTION":13.18688516,"ECCENTRICITY":0.00017142,"INCLINATION":87.9226,"RA_OF_ASC_NODE":20.7209,"ARG_OF_PERICENTER":104.1267,"MEAN_ANOMALY":256.0056,"EPHEMERIS_TYPE":0,"CLASSIFICATION_TYPE":"U","NORAD_CAT_ID":50477,"ELEMENT_SET_NO":999,"REV_AT_EPOCH":19157,"BSTAR":0.00022732195,"MEAN_MOTION_DOT":1.03e-6,"MEAN_MOTION_DDOT":0}]
