ONEWEB-0381             
1 49307U 21090AE  25305.50917596  .00000023  00000+0  24544-4 0  9999
2 49307  87.9186 319.8476 0001650  85.5743 274.5579 13.20771485199776
ONEWEB-0382             
1 49308U 21090AF  25305.49654848  .00000041  00000+0  69344-4 0  9993
2 49308  87.9194 319.8434 0001562  93.0346 267.0966 13.20770804199765
ONEWEB-0383             
1 49309U 21090AG  25305.51545664 -.00000006  00000+0 -51609-4 0  9990
2 49309  87.9011 335.0463 0001716  99.3256 260.8068 13.14504105197681
ONEWEB-0384             
1 49310U 21090AH  25305.49076562 -.00000002  00000+0 -37735-4 0  9995
2 49310  87.9210 319.8767 0001356 100.2941 259.8346 13.20796017199775
ONEWEB-0385             
1 49311U 21090AJ  25305.48865413  .00000015  00000+0  54759-5 0  9994
2 49311  87.9188 319.8536 0001695  93.1041 267.0287 13.20772399199740
ONEWEB-0386             
1 49312U 21090AK  25305.50601436  .00000015  00000+0  39887-5 0  9996
2 49312  87.9195 319.8308 0001624  95.3025 264.8294 13.20771655199763
ONEWEB-0387             
1 49313U 21090AL  25305.49023210  .00000003  00000+0 -24725-4 0  9995
2 49313  87.9186 319.8828 0001713  83.3414 276.7914 13.20770560199764
ONEWEB-0388             
1 49314U 21090AM  25305.42674688  .00000142  00000+0  32280-3 0  9997
2 49314  87.9228 350.2963 0001764  98.3130 261.8203 13.19726690196371
ONEWEB-0389             
1 50469U 21132A   25305.31428093  .00004194  00000+0  10768-1 0  9998
2 50469  87.9139  51.1832 0001417 101.6037 258.5254 13.17630029188071
ONEWEB-0390             
1 50470U 21132B   25305.54377077  .00000082  00000+0  17827-3 0  9997
2 50470  87.9127  51.1420 0001952  94.0668 266.0687 13.17649776188109
ONEWEB-0391             
1 50471U 21132C   25305.54545547  .00000039  00000+0  67664-4 0  9994
2 50471  87.9119  51.1515 0001367  72.8640 287.2641 13.17651451188108
ONEWEB-0392             
1 50472U 21132D   25305.57582191  .00000043  00000+0  78422-4 0  9993
2 50472  87.9127  51.0947 0001453  92.5132 267.6166 13.17651699188149
ONEWEB-0393             
1 50473U 21132E   25305.54895324 -.00003190  00000+0 -82492-2 0  9994
2 50473  87.9126  51.1205 0001401  99.6818 260.4472 13.17664124188136
ONEWEB-0394             
1 50474U 21132F   25305.46834211  .00000119  00000+0  26995-3 0  9997
2 50474  87.9228  20.6645 0001680 100.2599 259.8722 13.18686856191583
ONEWEB-0395             
1 50475U 21132G   25305.57377488  .00000245  00000+0  65577-3 0  9997
2 50475  87.8851  66.4049 0001665  91.6655 268.4664 13.11416273185884
ONEWEB-0396             
1 50476U 21132H   25305.61349994 -.00000029  00000+0 -10644-3 0  9991
2 50476  87.9235  20.6486 0001736 100.1056 260.0272 13.18686155191648
ONEWEB-0397             
1 50477U 21132J   25305.24895680  .00000103  00000+0  22732-3 0  9991
2 50477  87.9226  20.7209 0001714 104.1267 256.0056 13.18688516191577
